CCSDS_OMM_VERS = 2.0
CREATION_DATE  = 
ORIGINATOR     = 

OBJECT_NAME    = STARLINK-36176
OBJECT_ID      = 2025-293Z
CENTER_NAME    = EARTH
REF_FRAME      = TEME
TIME_SYSTEM    = UTC
MEAN_ELEMENT_THEORY = SGP/SGP4

EPOCH          = 2025-12-28T04:00:01.998720
MEAN_MOTION    = 15.66707165
ECCENTRICITY   = .0003603
INCLINATION    = 69.9996
RA_OF_ASC_NODE = 279.3004
ARG_OF_PERICENTER = 267.1729
MEAN_ANOMALY   = 32.6377

EPHEMERIS_TYPE = 0
CLASSIFICATION_TYPE = U
NORAD_CAT_ID   = 67026
ELEMENT_SET_NO = 999
REV_AT_EPOCH   = 270
BSTAR          = -.17288E-1
MEAN_MOTION_DOT = -.1617993E-1
MEAN_MOTION_DDOT = 0

CCSDS_OMM_VERS = 2.0
CREATION_DATE  = 
ORIGINATOR     = 

OBJECT_NAME    = STARLINK-36171
OBJECT_ID      = 2025-293AA
CENTER_NAME    = EARTH
REF_FRAME      = TEME
TIME_SYSTEM    = UTC
MEAN_ELEMENT_THEORY = SGP/SGP4

EPOCH          = 2025-12-28T04:00:01.998720
MEAN_MOTION    = 15.66718010
ECCENTRICITY   = .0003546
INCLINATION    = 69.9995
RA_OF_ASC_NODE = 279.3020
ARG_OF_PERICENTER = 267.7117
MEAN_ANOMALY   = 30.0449

EPHEMERIS_TYPE = 0
CLASSIFICATION_TYPE = U
NORAD_CAT_ID   = 67027
ELEMENT_SET_NO = 999
REV_AT_EPOCH   = 269
BSTAR          = -.17307E-1
MEAN_MOTION_DOT = -.1620143E-1
MEAN_MOTION_DDOT = 0

CCSDS_OMM_VERS = 2.0
CREATION_DATE  = 
ORIGINATOR     = 

OBJECT_NAME    = STARLINK-36132
OBJECT_ID      = 2025-293AB
CENTER_NAME    = EARTH
REF_FRAME      = TEME
TIME_SYSTEM    = UTC
MEAN_ELEMENT_THEORY = SGP/SGP4

EPOCH          = 2025-12-28T04:00:01.998720
MEAN_MOTION    = 15.66666022
ECCENTRICITY   = .0003554
INCLINATION    = 69.9997
RA_OF_ASC_NODE = 279.2946
ARG_OF_PERICENTER = 269.4433
MEAN_ANOMALY   = 34.7975

EPHEMERIS_TYPE = 0
CLASSIFICATION_TYPE = U
NORAD_CAT_ID   = 67028
ELEMENT_SET_NO = 999
REV_AT_EPOCH   = 270
BSTAR          = -.17346E-1
MEAN_MOTION_DOT = -.1620365E-1
MEAN_MOTION_DDOT = 0

CCSDS_OMM_VERS = 2.0
CREATION_DATE  = 
ORIGINATOR     = 

OBJECT_NAME    = STARLINK-36190
OBJECT_ID      = 2025-293AC
CENTER_NAME    = EARTH
REF_FRAME      = TEME
TIME_SYSTEM    = UTC
MEAN_ELEMENT_THEORY = SGP/SGP4

EPOCH          = 2025-12-28T04:00:01.998720
MEAN_MOTION    = 15.66695746
ECCENTRICITY   = .0003536
INCLINATION    = 69.9997
RA_OF_ASC_NODE = 279.2976
ARG_OF_PERICENTER = 267.9945
MEAN_ANOMALY   = 33.9234

EPHEMERIS_TYPE = 0
CLASSIFICATION_TYPE = U
NORAD_CAT_ID   = 67029
ELEMENT_SET_NO = 999
REV_AT_EPOCH   = 270
BSTAR          = -.1735E-1
MEAN_MOTION_DOT = -.1622435E-1
MEAN_MOTION_DDOT = 0

CCSDS_OMM_VERS = 2.0
CREATION_DATE  = 
ORIGINATOR     = 

OBJECT_NAME    = STARLINK-36138
OBJECT_ID      = 2025-294A
CENTER_NAME    = EARTH
REF_FRAME      = TEME
TIME_SYSTEM    = UTC
MEAN_ELEMENT_THEORY = SGP/SGP4

EPOCH          = 2025-12-28T04:00:01.998720
MEAN_MOTION    = 15.58772050
ECCENTRICITY   = .0001157
INCLINATION    = 42.9991
RA_OF_ASC_NODE = 88.2774
ARG_OF_PERICENTER = 279.8447
MEAN_ANOMALY   = 247.9775

EPHEMERIS_TYPE = 0
CLASSIFICATION_TYPE = U
NORAD_CAT_ID   = 67030
ELEMENT_SET_NO = 999
REV_AT_EPOCH   = 258
BSTAR          = -.26968E-1
MEAN_MOTION_DOT = -.1890007E-1
MEAN_MOTION_DDOT = 0

CCSDS_OMM_VERS = 2.0
CREATION_DATE  = 
ORIGINATOR     = 

OBJECT_NAME    = STARLINK-36150
OBJECT_ID      = 2025-294B
CENTER_NAME    = EARTH
REF_FRAME      = TEME
TIME_SYSTEM    = UTC
MEAN_ELEMENT_THEORY = SGP/SGP4

EPOCH          = 2025-12-28T04:00:01.998720
MEAN_MOTION    = 15.58782750
ECCENTRICITY   = .0001065
INCLINATION    = 42.9992
RA_OF_ASC_NODE = 88.2723
ARG_OF_PERICENTER = 280.3814
MEAN_ANOMALY   = 249.3174

EPHEMERIS_TYPE = 0
CLASSIFICATION_TYPE = U
NORAD_CAT_ID   = 67031
ELEMENT_SET_NO = 999
REV_AT_EPOCH   = 277
BSTAR          = -.27108E-1
MEAN_MOTION_DOT = -.189929E-1
MEAN_MOTION_DDOT = 0

CCSDS_OMM_VERS = 2.0
CREATION_DATE  = 
ORIGINATOR     = 

OBJECT_NAME    = STARLINK-36131
OBJECT_ID      = 2025-294C
CENTER_NAME    = EARTH
REF_FRAME      = TEME
TIME_SYSTEM    = UTC
MEAN_ELEMENT_THEORY = SGP/SGP4

EPOCH          = 2025-12-28T04:00:01.998720
MEAN_MOTION    = 15.58766177
ECCENTRICITY   = .0001063
INCLINATION    = 42.9989
RA_OF_ASC_NODE = 88.2621
ARG_OF_PERICENTER = 275.4487
MEAN_ANOMALY   = 258.1852

EPHEMERIS_TYPE = 0
CLASSIFICATION_TYPE = U
NORAD_CAT_ID   = 67032
ELEMENT_SET_NO = 999
REV_AT_EPOCH   = 258
BSTAR          = -.27055E-1
MEAN_MOTION_DOT = -.1894912E-1
MEAN_MOTION_DDOT = 0

CCSDS_OMM_VERS = 2.0
CREATION_DATE  = 
ORIGINATOR     = 

OBJECT_NAME    = STARLINK-36137
OBJECT_ID      = 2025-294D
CENTER_NAME    = EARTH
REF_FRAME      = TEME
TIME_SYSTEM    = UTC
MEAN_ELEMENT_THEORY = SGP/SGP4

EPOCH          = 2025-12-28T04:00:01.998720
MEAN_MOTION    = 15.58773020
ECCENTRICITY   = .0001053
INCLINATION    = 42.9993
RA_OF_ASC_NODE = 88.2673
ARG_OF_PERICENTER = 279.7494
MEAN_ANOMALY   = 251.9143

EPHEMERIS_TYPE = 0
CLASSIFICATION_TYPE = U
NORAD_CAT_ID   = 67033
ELEMENT_SET_NO = 999
REV_AT_EPOCH   = 258
BSTAR          = -.27049E-1
MEAN_MOTION_DOT = -.1894983E-1
MEAN_MOTION_DDOT = 0

CCSDS_OMM_VERS = 2.0
CREATION_DATE  = 
ORIGINATOR     = 

OBJECT_NAME    = STARLINK-36140
OBJECT_ID      = 2025-294E
CENTER_NAME    = EARTH
REF_FRAME      = TEME
TIME_SYSTEM    = UTC
MEAN_ELEMENT_THEORY = SGP/SGP4

EPOCH          = 2025-12-27T22:00:03.999744
MEAN_MOTION    = 15.59857656
ECCENTRICITY   = .00012925
INCLINATION    = 42.9994
RA_OF_ASC_NODE = 89.7389
ARG_OF_PERICENTER = 276.5126
MEAN_ANOMALY   = 294.1918

EPHEMERIS_TYPE = 0
CLASSIFICATION_TYPE = U
NORAD_CAT_ID   = 67034
ELEMENT_SET_NO = 999
REV_AT_EPOCH   = 254
BSTAR          = -.27184007E-1
MEAN_MOTION_DOT = -.1974735E-1
MEAN_MOTION_DDOT = 0

CCSDS_OMM_VERS = 2.0
CREATION_DATE  = 
ORIGINATOR     = 

OBJECT_NAME    = STARLINK-36085
OBJECT_ID      = 2025-294F
CENTER_NAME    = EARTH
REF_FRAME      = TEME
TIME_SYSTEM    = UTC
MEAN_ELEMENT_THEORY = SGP/SGP4

EPOCH          = 2025-12-28T04:00:01.998720
MEAN_MOTION    = 15.58722667
ECCENTRICITY   = .0001073
INCLINATION    = 42.9992
RA_OF_ASC_NODE = 88.2471
ARG_OF_PERICENTER = 280.7977
MEAN_ANOMALY   = 258.8833

EPHEMERIS_TYPE = 0
CLASSIFICATION_TYPE = U
NORAD_CAT_ID   = 67035
ELEMENT_SET_NO = 999
REV_AT_EPOCH   = 258
BSTAR          = -.27069E-1
MEAN_MOTION_DOT = -.1893027E-1
MEAN_MOTION_DDOT = 0

CCSDS_OMM_VERS = 2.0
CREATION_DATE  = 
ORIGINATOR     = 

OBJECT_NAME    = STARLINK-36125
OBJECT_ID      = 2025-294G
CENTER_NAME    = EARTH
REF_FRAME      = TEME
TIME_SYSTEM    = UTC
MEAN_ELEMENT_THEORY = SGP/SGP4

EPOCH          = 2025-12-28T04:00:01.998720
MEAN_MOTION    = 15.58732168
ECCENTRICITY   = .0000933
INCLINATION    = 42.9989
RA_OF_ASC_NODE = 88.2523
ARG_OF_PERICENTER = 277.0189
MEAN_ANOMALY   = 260.6476

EPHEMERIS_TYPE = 0
CLASSIFICATION_TYPE = U
NORAD_CAT_ID   = 67036
ELEMENT_SET_NO = 999
REV_AT_EPOCH   = 277
BSTAR          = -.26919E-1
MEAN_MOTION_DOT = -.188428E-1
MEAN_MOTION_DDOT = 0

CCSDS_OMM_VERS = 2.0
CREATION_DATE  = 
ORIGINATOR     = 

OBJECT_NAME    = STARLINK-35732
OBJECT_ID      = 2025-294H
CENTER_NAME    = EARTH
REF_FRAME      = TEME
TIME_SYSTEM    = UTC
MEAN_ELEMENT_THEORY = SGP/SGP4

EPOCH          = 2025-12-28T04:00:01.998720
MEAN_MOTION    = 15.58703799
ECCENTRICITY   = .0001206
INCLINATION    = 42.9991
RA_OF_ASC_NODE = 88.2421
ARG_OF_PERICENTER = 283.9540
MEAN_ANOMALY   = 257.7806

EPHEMERIS_TYPE = 0
CLASSIFICATION_TYPE = U
NORAD_CAT_ID   = 67037
ELEMENT_SET_NO = 999
REV_AT_EPOCH   = 269
BSTAR          = -.27102E-1
MEAN_MOTION_DOT = -.1893904E-1
MEAN_MOTION_DDOT = 0

