STARLINK-36176          
1 67026U 25293Z   25362.16668980 -.01617993  00000+0 -17288-1 0  9998
2 67026  69.9996 279.3004 0003603 267.1729  32.6377 15.66707165  2703
STARLINK-36171          
1 67027U 25293AA  25362.16668980 -.01620143  00000+0 -17307-1 0  9992
2 67027  69.9995 279.3020 0003546 267.7117  30.0449 15.66718010  2695
STARLINK-36132          
1 67028U 25293AB  25362.16668980 -.01620365  00000+0 -17346-1 0  9992
2 67028  69.9997 279.2946 0003554 269.4433  34.7975 15.66666022  2705
STARLINK-36190          
1 67029U 25293AC  25362.16668980 -.01622435  00000+0 -17350-1 0  9998
2 67029  69.9997 279.2976 0003536 267.9945  33.9234 15.66695746  2704
STARLINK-36138          
1 67030U 25294A   25362.16668980 -.01890007  00000+0 -26968-1 0  9998
2 67030  42.9991  88.2774 0001157 279.8447 247.9775 15.58772050  2589
STARLINK-36150          
1 67031U 25294B   25362.16668980 -.01899290  00000+0 -27108-1 0  9999
2 67031  42.9992  88.2723 0001065 280.3814 249.3174 15.58782750  2776
STARLINK-36131          
1 67032U 25294C   25362.16668980 -.01894912  00000+0 -27055-1 0  9997
2 67032  42.9989  88.2621 0001063 275.4487 258.1852 15.58766177  2584
STARLINK-36137          
1 67033U 25294D   25362.16668980 -.01894983  00000+0 -27049-1 0  9999
2 67033  42.9993  88.2673 0001053 279.7494 251.9143 15.58773020  2580
STARLINK-36140          
1 67034U 25294E   25361.91671296 -.01974735  00000+0 -27184-1 0  9990
2 67034  42.9994  89.7389 0001292 276.5126 294.1918 15.59857656  2548
STARLINK-36085          
1 67035U 25294F   25362.16668980 -.01893027  00000+0 -27069-1 0  9991
2 67035  42.9992  88.2471 0001073 280.7977 258.8833 15.58722667  2580
STARLINK-36125          
1 67036U 25294G   25362.16668980 -.01884280  00000+0 -26919-1 0  9996
2 67036  42.9989  88.2523 0000933 277.0189 260.6476 15.58732168  2775
STARLINK-35732          
1 67037U 25294H   25362.16668980 -.01893904  00000+0 -27102-1 0  9995
2 67037  42.9991  88.2421 0001206 283.9540 257.7806 15.58703799  2690
